1 25980U 99065A   14365.24260575  .00000939  00000-0  40210-3 0  9994,2 25980 045.0335 057.3650 0002444 142.4633 266.9335 14.31544931786818
1 25980U 99065A   15001.58995543  .00000792  00000-0  34732-3 0  9998,2 25980 045.0335 051.0471 0002496 149.7069 010.0320 14.31548060787001
1 25980U 99065A   15003.38896424  .00000581  00000-0  26881-3 0  9998,2 25980 045.0335 042.6112 0002587 158.8684 281.1216 14.31553701787265
1 25980U 99065A   15004.52006109  .00000599  00000-0  27534-3 0  9993,2 25980 045.0336 037.3073 0002661 164.2915 350.5195 14.31555974787423
1 25980U 99065A   15005.56343485  .00000757  00000-0  33448-3 0  9996,2 25980 045.0337 032.4147 0002711 169.1486 327.9777 14.31557274787570
1 25980U 99065A   15007.51717060  .00000873  00000-0  37770-3 0  9998,2 25980 045.0338 023.2533 0002824 177.8347 317.7930 14.31562830787858
1 25980U 99065A   15009.17453113  .00001134  00000-0  47470-3 0  9997,2 25980 045.0339 015.4815 0002895 184.7635 220.5180 14.31568152788098
1 25980U 99065A   15010.45331205  .00001112  00000-0  46631-3 0  9991,2 25980 045.0339 009.4851 0002943 190.0199 331.9953 14.31570680788274
1 25980U 99065A   15012.33514765  .00000838  00000-0  36432-3 0  9996,2 25980 045.0339 000.6607 0003001 197.3356 312.3584 14.31578232788541
1 25980U 99065A   15013.38295124  .00000778  00000-0  34212-3 0  9994,2 25980 045.0339 355.7473 0003045 201.4188 313.5185 14.31581921788699
1 25980U 99065A   15014.89258749  .00000705  00000-0  31496-3 0  9994,2 25980 045.0339 348.6681 0003102 207.1080 175.5273 14.31586794788911
1 25980U 99065A   15016.31369171  .00000883  00000-0  38098-3 0  9997,2 25980 045.0338 342.0042 0003136 212.4163 301.2401 14.31588798789117
1 25980U 99065A   15017.48832332  .00000721  00000-0  32060-3 0  9994,2 25980 045.0337 336.4960 0003148 216.5735 236.6379 14.31591365789282
1 25980U 99065A   15018.87191214  .00000585  00000-0  26989-3 0  9996,2 25980 045.0335 330.0078 0003196 221.4025 169.3214 14.31592427789482
1 25980U 99065A   15020.29256322  .00000670  00000-0  30153-3 0  9990,2 25980 045.0332 323.3459 0003206 226.5528 292.8802 14.31594815789683
1 25980U 99065A   15021.39469022  .00000560  00000-0  26090-3 0  9998,2 25980 045.0331 318.1776 0003221 230.4876 214.4906 14.31597258789840
1 25980U 99065A   15023.22253616  .00000380  00000-0  19377-3 0  9992,2 25980 045.0328 309.6061 0003193 236.6695 277.6449 14.31601183790100
1 25980U 99065A   15024.26588692  .00000335  00000-0  17691-3 0  9999,2 25980 045.0326 304.7133 0003161 240.0872 256.5903 14.31602093790253
1 25980U 99065A   15025.78157374  .00000393  00000-0  19852-3 0  9991,2 25980 045.0324 297.6053 0003140 244.9565 150.7500 14.31602968790474
1 25980U 99065A   15026.97422729  .00000573  00000-0  26566-3 0  9992,2 25980 045.0322 292.0124 0003100 248.7985 179.4974 14.31604536790649
1 25980U 99065A   15028.30435343  .00000615  00000-0  28128-3 0  9990,2 25980 045.0319 285.7748 0003082 253.3234 196.7507 14.31607307790838
1 25980U 99065A   15030.88054037  .00000649  00000-0  29368-3 0  9997,2 25980 045.0314 273.6934 0002991 261.5557 158.4355 14.31613769791200
1 25980U 99065A   15032.21083520  .00000644  00000-0  29183-3 0  9995,2 25980 045.0313 267.4547 0002946 265.8535 176.8220 14.31619156791394
1 25980U 99065A   15034.10522146  .00000625  00000-0  28478-3 0  9992,2 25980 045.0312 258.5703 0002864 271.7415 223.6799 14.31624270791665
1 25980U 99065A   15035.21518722  .00000723  00000-0  32134-3 0  9993,2 25980 045.0312 253.3646 0002829 275.4038 186.1202 14.31625716791823
1 25980U 99065A   15037.04069954  .00000917  00000-0  39345-3 0  9990,2 25980 045.0311 244.8031 0002752 281.5838 237.4273 14.31629627792088
1 25980U 99065A   15038.55046524  .00000899  00000-0  38657-3 0  9999,2 25980 045.0312 237.7223 0002675 286.2563 101.3769 14.31633698792301
1 25980U 99065A   15039.89809634  .00000735  00000-0  32557-3 0  9998,2 25980 045.0312 231.4019 0002599 289.8836 209.9658 14.31637733792498
1 25980U 99065A   15040.94775078  .00000740  00000-0  32736-3 0  9995,2 25980 045.0313 226.4790 0002549 293.0695 221.7946 14.31641349792641
1 25980U 99065A   15041.99113962  .00000724  00000-0  32145-3 0  9995,2 25980 045.0314 221.5855 0002496 296.1453 201.4257 14.31643731792790
1 25980U 99065A   15043.64949146  .00000689  00000-0  30864-3 0  9996,2 25980 045.0317 213.8076 0002396 302.5115 110.3053 14.31646772793036
1 25980U 99065A   15044.99481706  .00000545  00000-0  25491-3 0  9999,2 25980 045.0319 207.4980 0002305 307.3496 205.8632 14.31648622793226
1 25980U 99065A   15045.97102931  .00000819  00000-0  35712-3 0  9999,2 25980 045.0319 202.9197 0002560 310.9117 198.4317 14.31588950793368
1 25980U 99065A   15047.48643206  .00000788  00000-0  34557-3 0  9993,2 25980 045.0321 195.8130 0002431 316.8272 090.0029 14.31591492793588
1 25980U 99065A   15048.53238687  .00000685  00000-0  30725-3 0  9992,2 25980 045.0320 190.9080 0002395 317.8998 084.6885 14.31596462793730
1 25980U 99065A   15049.73663970  .00000734  00000-0  32572-3 0  9999,2 25980 045.0323 185.2613 0002564 324.6967 170.1268 14.31540212793909
1 25980U 99065A   15050.61775185 -.00008903  00000-0  00000+0 0  9994,2 25980 045.0271 181.1163 0002880 329.9339 030.1822 14.31551391794034
1 25980U 99065A   15050.85423323  .00000601  00000-0  27667-3 0  9992,2 25980 045.0320 180.0207 0002707 329.7713 170.0610 14.31506433794067
1 25980U 99065A   15052.52088755  .00000132  00000-0  10148-3 0  9999,2 25980 045.0321 172.2063 0002569 339.9881 117.0912 14.31507653794304
1 25980U 99065A   15053.64616700  .00000211  00000-0  13104-3 0  9993,2 25980 045.0322 166.9301 0002510 343.9442 157.7803 14.31510327794463
1 25980U 99065A   15055.16793399  .00000840  00000-0  36576-3 0  9998,2 25980 045.0322 159.7945 0002358 351.3639 080.2556 14.31513450794687
1 25980U 99065A   15056.27932667  .00000651  00000-0  29497-3 0  9998,2 25980 045.0323 154.5823 0002288 357.1936 047.4513 14.31516052794849
1 25980U 99065A   15057.54277223  .00000736  00000-0  32661-3 0  9990,2 25980 045.0323 148.6583 0002248 000.3562 081.6781 14.31518285795022
1 25980U 99065A   15058.60078373  .00000822  00000-0  35892-3 0  9998,2 25980 045.0328 143.6895 0002451 007.2770 132.4416 14.31520724795178
1 25980U 99065A   15059.65054868  .00000825  00000-0  35993-3 0  9992,2 25980 045.0327 138.7671 0002380 012.0424 142.8259 14.31522719795328
1 25980U 99065A   15061.23311855  .00001048  00000-0  44301-3 0  9992,2 25980 045.0325 131.3463 0002248 019.4292 019.0529 14.31527314795557
1 25980U 99065A   15062.57306932  .00001124  00000-0  47149-3 0  9998,2 25980 045.0325 125.0632 0002160 026.4902 084.0830 14.31530819795746
1 25980U 99065A   15063.63074781  .00001063  00000-0  44862-3 0  9991,2 25980 045.0324 120.1036 0002100 032.0749 134.5081 14.31533055795895
1 25980U 99065A   15065.21295052  .00000891  00000-0  38431-3 0  9996,2 25980 045.0325 112.6844 0002002 040.7314 007.6238 14.31535970796123
1 25980U 99065A   15066.56024542  .00000978  00000-0  41695-3 0  9991,2 25980 045.0326 106.3669 0001941 048.7560 109.6219 14.31539803796313
1 25980U 99065A   15068.22098006  .00001066  00000-0  44945-3 0  9992,2 25980 045.0326 098.5794 0001878 058.9164 026.3839 14.31544164796551
1 25980U 99065A   15069.48310141  .00000957  00000-0  40903-3 0  9996,2 25980 045.0326 092.6610 0001827 067.2901 048.6946 14.31546411796732
1 25980U 99065A   15071.15044630  .00000899  00000-0  38718-3 0  9996,2 25980 045.0326 084.8421 0001786 078.2416 358.8005 14.31549722796978
1 25980U 99065A   15072.20066630  .00000865  00000-0  37448-3 0  9999,2 25980 045.0326 079.9172 0001777 085.7122 008.9397 14.31551947797120
1 25980U 99065A   15073.46383682  .00000836  00000-0  36374-3 0  9992,2 25980 045.0327 073.9938 0001787 093.9843 036.8021 14.31554516797306
1 25980U 99065A   15075.20399380  .00000743  00000-0  32905-3 0  9991,2 25980 045.0330 065.8336 0001811 105.1752 002.3208 14.31557362797559
1 25980U 99065A   15076.40292426  .00000717  00000-0  31933-3 0  9998,2 25980 045.0331 060.2115 0001851 112.5657 059.7010 14.31559436797724
1 25980U 99065A   15077.44412524  .00001239  00000-0  51394-3 0  9999,2 25980 045.0332 055.3291 0001887 119.1413 024.2625 14.31565166797879
1 25980U 99065A   15079.39680807  .00001173  00000-0  48867-3 0  9994,2 25980 045.0335 046.1722 0001716 131.4290 005.1718 14.31624884798156
1 25980U 99065A   15079.85887868  .00001036  00000-0  38533-3 0  9998,2 25980 045.0321 044.0080 0002055 140.4660 219.6810 14.31569627798229
1 25980U 99065A   15079.93131375  .00000837  00000-0  36332-3 0  9995,2 25980 045.0251 043.6659 0003393 106.6899 267.3623 14.31654908798232
1 25980U 99065A   15081.12853188  .00000810  00000-0  35348-3 0  9999,2 25980 045.0337 038.0505 0001656 141.8036 288.6170 14.31664011798407
1 25980U 99065A   15082.17780242  .00000802  00000-0  35026-3 0  9999,2 25980 045.0338 033.1292 0001724 148.1768 295.3920 14.31666729798557
1 25980U 99065A   15083.30966419  .00000857  00000-0  37067-3 0  9994,2 25980 045.0340 027.8203 0001856 154.1458 008.6687 14.31670372798713
1 25980U 99065A   15084.21357447  .00000894  00000-0  38405-3 0  9998,2 25980 045.0347 023.5808 0001585 153.8014 352.3359 14.31726149798840
1 25980U 99065A   15085.26244719  .00000788  00000-0  34492-3 0  9995,2 25980 045.0342 018.6614 0001748 164.0898 353.3804 14.31730696798994
1 25980U 99065A   15086.62750299  .00011911  00000-0  44113-2 0  9991,2 25980 045.0366 012.2543 0002169 194.1401 165.9863 14.31763711799192
1 25980U 99065A   15086.62752273  .00009584  00000-0  35514-2 0  9993,2 25980 045.0309 012.2631 0001544 176.3061 183.8275 14.31739501799193
1 25980U 99065A   15086.76704828  .00011361  00000-0  42065-2 0  9996,2 25980 045.0360 011.6088 0002215 177.9963 182.1370 14.31775964799217
1 25980U 99065A   15086.83684659  .00009666  00000-0  35799-2 0  9994,2 25980 045.0315 011.2751 0001952 172.5379 187.5974 14.31762118799226
1 25980U 99065A   15087.21576538  .00000923  00000-0  39496-3 0  9999,2 25980 045.0341 009.4994 0001907 172.5962 342.4469 14.31737581799273
